NORAD_CAT_ID,OBJECT_NAME,OBJECT_TYPE,EPOCH,MEAN_MOTION,ECCENTRICITY,INCLINATION,RA_OF_ASC_NODE,ARG_OF_PERICENTER,MEAN_ANOMALY,BSTAR,MEAN_MOTION_DOT,MEAN_MOTION_DDOT,TLE_LINE0,TLE_LINE1,TLE_LINE2,SEMIMAJOR_AXIS,PERIOD,APOGEE,PERIGEE,DECAYED
55316.0,STARLINK-5257,PAYLOAD,2024-04-11 21:43:54,14.98335295,0.0003086,69.9987,321.196,270.5203,89.5603,-5.0198e-05,-6.92e-06,0.0,0 STARLINK-5257,1 55316U 23010AZ  24102.90548715 -.00000692  00000-0 -50198-4 0  9990,2 55316  69.9987 321.1960 0003086 270.5203  89.5603 14.98335295 70274,6950.177,96.107,574.186,569.897,0.0
55316.0,STARLINK-5257,PAYLOAD,2024-04-12 00:56:10,14.98332656,0.000298,69.9987,320.8594,270.7347,89.347,4.4363e-05,4.36e-06,0.0,0 STARLINK-5257,1 55316U 23010AZ  24103.03900551  .00000436  00000-0  44363-4 0  9996,2 55316  69.9987 320.8594 0002980 270.7347  89.3470 14.98332656 70296,6950.185,96.107,574.121,569.979,0.0
55316.0,STARLINK-5257,PAYLOAD,2024-04-12 21:45:55,14.98331262,0.0002851,69.9989,318.6722,266.6162,93.4671,-1.3651e-05,-2.56e-06,0.0,0 STARLINK-5257,1 55316U 23010AZ  24103.90688698 -.00000256  00000-0 -13651-4 0  9995,2 55316  69.9989 318.6722 0002851 266.6162  93.4671 14.98331262 70428,6950.189,96.107,574.035,570.072,0.0
55316.0,STARLINK-5257,PAYLOAD,2024-04-12 23:22:03,14.98331454,0.0002845,69.9989,318.5039,266.4987,93.5847,-1.1118e-05,-2.26e-06,0.0,0 STARLINK-5257,1 55316U 23010AZ  24103.97364669 -.00000226  00000-0 -11118-4 0  9994,2 55316  69.9989 318.5039 0002845 266.4987  93.5847 14.98331454 69252,6950.188,96.107,574.031,570.076,0.0
55316.0,STARLINK-5257,PAYLOAD,2024-04-13 21:47:56,14.98326661,0.0002825,69.9992,316.1471,261.4577,98.6262,-4.641e-05,-6.47e-06,0.0,0 STARLINK-5257,1 55316U 23010AZ  24104.90829068 -.00000647  00000-0 -46410-4 0  9997,2 55316  69.9992 316.1471 0002825 261.4577  98.6262 14.98326661 70576,6950.203,96.107,574.032,570.105,0.0
55316.0,STARLINK-5257,PAYLOAD,2024-04-13 23:24:04,14.98327107,0.0002824,69.9992,315.9788,261.4866,98.5973,-4.0965e-05,-5.82e-06,0.0,0 STARLINK-5257,1 55316U 23010AZ  24104.97505035 -.00000582  00000-0 -40965-4 0  9996,2 55316  69.9992 315.9788 0002824 261.4866  98.5973 14.98327107 69408,6950.202,96.107,574.03,570.104,0.0
55316.0,STARLINK-5257,PAYLOAD,2024-04-14 21:49:56,14.98330952,0.0002859,69.9993,313.6219,256.4976,103.5864,1.9759e-05,1.43e-06,0.0,0 STARLINK-5257,1 55316U 23010AZ  24105.90968620  .00000143  00000-0  19759-4 0  9991,2 55316  69.9993 313.6219 0002859 256.4976 103.5864 14.98330952 70722,6950.19,96.107,574.042,570.068,0.0
55316.0,STARLINK-5257,PAYLOAD,2024-04-14 23:26:04,14.98331935,0.0002939,69.9989,313.4526,265.126,94.9564,2.6104e-05,2.18e-06,0.0,0 STARLINK-5257,1 55316U 23010AZ  24105.97644578  .00000218  00000-0  26104-4 0  9996,2 55316  69.9989 313.4526 0002939 265.1260  94.9564 14.98331935 69559,6950.187,96.107,574.095,570.009,0.0
55316.0,STARLINK-5257,PAYLOAD,2024-04-15 13:51:17,14.9832622,0.0002953,69.9989,311.9373,269.3847,90.6974,0.00015531,1.76e-05,0.0,0 STARLINK-5257,1 55316U 23010AZ  24106.57728488  .00001760  00000-0  15531-3 0  9990,2 55316  69.9989 311.9373 0002953 269.3847  90.6974 14.98326220 70826,6950.205,96.107,574.122,570.017,0.0
55316.0,STARLINK-5257,PAYLOAD,2024-04-15 21:51:57,14.98326402,0.0003059,69.9986,311.0954,269.76,90.3208,0.00014123,1.592e-05,0.0,0 STARLINK-5257,1 55316U 23010AZ  24106.91108558  .00001592  00000-0  14123-3 0  9997,2 55316  69.9986 311.0954 0003059 269.7600  90.3208 14.98326402 70872,6950.204,96.107,574.195,569.943,0.0
55316.0,STARLINK-5257,PAYLOAD,2024-04-15 23:28:06,14.98307617,0.0002906,69.9986,310.9273,268.532,91.5506,0.00048135,5.652e-05,0.0,0 STARLINK-5257,1 55316U 23010AZ  24106.97784934  .00005652  00000-0  48135-3 0  9992,2 55316  69.9986 310.9273 0002906 268.5320  91.5506 14.98307617 69701,6950.262,96.108,574.147,570.107,0.0
55316.0,STARLINK-5257,PAYLOAD,2024-04-16 13:53:18,14.98332681,0.0003038,69.9985,309.4115,271.0374,89.0437,6.0282e-07,-8.6e-07,0.0,0 STARLINK-5257,1 55316U 23010AZ  24107.57868498 -.00000086  00000-0  60282-6 0  9994,2 55316  69.9985 309.4115 0003038 271.0374  89.0437 14.98332681 69796,6950.185,96.107,574.161,569.938,0.0
55316.0,STARLINK-5257,PAYLOAD,2024-04-16 21:53:58,14.98340884,0.0003177,69.9978,308.57,270.7787,89.3008,6.0887e-05,6.34e-06,0.0,0 STARLINK-5257,1 55316U 23010AZ  24107.91247686  .00000634  00000-0  60887-4 0  9999,2 55316  69.9978 308.5700 0003177 270.7787  89.3008 14.98340884 71026,6950.159,96.106,574.232,569.816,0.0
55316.0,STARLINK-5257,PAYLOAD,2024-04-16 23:30:05,14.98341455,0.0003149,69.9979,308.4016,271.1385,88.9413,8.3375e-05,9.02e-06,0.0,0 STARLINK-5257,1 55316U 23010AZ  24107.97923556  .00000902  00000-0  83375-4 0  9997,2 55316  69.9979 308.4016 0003149 271.1385  88.9413 14.98341455 69852,6950.157,96.106,574.211,569.834,0.0
55316.0,STARLINK-5257,PAYLOAD,2024-04-17 12:19:11,14.98331715,0.0002359,70.0001,307.0564,266.5782,93.5107,-4.9811e-05,-6.87e-06,0.0,0 STARLINK-5257,1 55316U 23010AZ  24108.51332595 -.00000687  00000-0 -49811-4 0  9994,2 55316  70.0001 307.0564 0002359 266.5782  93.5107 14.98331715 69934,6950.188,96.107,573.692,570.413,0.0
55316.0,STARLINK-5257,PAYLOAD,2024-04-17 13:55:19,14.98328916,0.0002663,70.0005,306.8868,255.1354,104.9511,-9.0732e-05,-1.175e-05,0.0,0 STARLINK-5257,1 55316U 23010AZ  24108.58008785 -.00001175  00000-0 -90732-4 0  9993,2 55316  70.0005 306.8868 0002663 255.1354 104.9511 14.98328916 71128,6950.196,96.107,573.912,570.21,0.0
55316.0,STARLINK-5257,PAYLOAD,2024-04-17 20:19:52,14.98314708,0.0002926,69.9974,306.2114,278.2858,81.797,9.6774e-06,2.2e-07,0.0,0 STARLINK-5257,1 55316U 23010AZ  24108.84713627  .00000022  00000-0  96774-5 0  9991,2 55316  69.9974 306.2114 0002926 278.2858  81.7970 14.98314708 69981,6950.24,96.108,574.139,570.072,0.0
55316.0,STARLINK-5257,PAYLOAD,2024-04-17 21:56:00,14.98320689,0.0002807,69.9992,306.0461,256.7054,103.3792,-0.00012514,-1.585e-05,0.0,0 STARLINK-5257,1 55316U 23010AZ  24108.91389493 -.00001585  00000-0 -12514-3 0  9994,2 55316  69.9992 306.0461 0002807 256.7054 103.3792 14.98320689 71173,6950.222,96.108,574.038,570.136,0.0
55316.0,STARLINK-5257,PAYLOAD,2024-04-18 12:21:09,14.98359433,0.0003379,69.9974,304.5299,266.9687,93.1085,0.00029516,3.433e-05,0.0,0 STARLINK-5257,1 55316U 23010AZ  24109.51469250  .00003433  00000-0  29516-3 0  9993,2 55316  69.9974 304.5299 0003379 266.9687  93.1085 14.98359433 70084,6950.102,96.105,574.315,569.618,0.0
55316.0,STARLINK-5257,PAYLOAD,2024-04-18 20:21:52,14.98321945,0.0003339,69.9974,303.6875,274.3119,85.7659,-0.00017565,-2.188e-05,0.0,0 STARLINK-5257,1 55316U 23010AZ  24109.84852737 -.00002188  00000-0 -17565-3 0  9994,2 55316  69.9974 303.6875 0003339 274.3119  85.7659 14.98321945 70130,6950.218,96.108,574.403,569.762,0.0
55316.0,STARLINK-5257,PAYLOAD,2024-04-18 21:58:00,14.98323134,0.0003319,69.9974,303.5192,271.3114,88.7665,-0.00016066,-2.009e-05,0.0,0 STARLINK-5257,1 55316U 23010AZ  24109.91528611 -.00002009  00000-0 -16066-3 0  9990,2 55316  69.9974 303.5192 0003319 271.3114  88.7665 14.98323134 71325,6950.214,96.107,574.386,569.772,0.0
55316.0,STARLINK-5257,PAYLOAD,2024-04-19 12:23:16,14.98282426,0.0001921,70.0041,302.0122,252.3354,107.7595,-0.00020709,-2.56e-05,0.0,0 STARLINK-5257,1 55316U 23010AZ  24110.51616756 -.00002560  00000-0 -20709-3 0  9997,2 55316  70.0041 302.0122 0001921 252.3354 107.7595 14.98282426 70233,6950.34,96.11,573.54,570.87,0.0
55316.0,STARLINK-5257,PAYLOAD,2024-04-19 13:59:25,14.98284996,0.000284,69.9981,301.8365,264.8356,95.2479,-0.0003151,-3.846e-05,0.0,0 STARLINK-5257,1 55316U 23010AZ  24110.58292962 -.00003846  00000-0 -31510-3 0  9993,2 55316  69.9981 301.8365 0002840 264.8356  95.2479 14.98284996 71428,6950.332,96.11,574.171,570.223,0.0
55316.0,STARLINK-5257,PAYLOAD,2024-04-19 20:23:54,14.98327119,0.0002858,69.9983,301.1632,257.3398,102.7441,0.00016182,1.838e-05,0.0,0 STARLINK-5257,1 55316U 23010AZ  24110.84993534  .00001838  00000-0  16182-3 0  9990,2 55316  69.9983 301.1632 0002858 257.3398 102.7441 14.98327119 70283,6950.202,96.107,574.053,570.08,0.0
55316.0,STARLINK-5257,PAYLOAD,2024-04-19 22:00:02,14.983285,0.0002862,69.9983,300.995,257.0212,103.0628,0.00017537,2e-05,0.0,0 STARLINK-5257,1 55316U 23010AZ  24110.91669423  .00002000  00000-0  17537-3 0  9992,2 55316  69.9983 300.9950 0002862 257.0212 103.0628 14.98328500 71478,6950.198,96.107,574.052,570.073,0.0
55316.0,STARLINK-5257,PAYLOAD,2024-04-20 12:25:13,14.98332457,0.0003336,69.9975,299.4788,268.0829,91.9948,0.00032453,3.782e-05,0.0,0 STARLINK-5257,1 55316U 23010AZ  24111.51752000  .00003782  00000-0  32453-3 0  9995,2 55316  69.9975 299.4788 0003336 268.0829  91.9948 14.98332457 70388,6950.185,96.107,574.369,569.732,0.0
55316.0,STARLINK-5257,PAYLOAD,2024-04-20 14:01:21,14.98333099,0.000327,69.9975,299.3108,270.1276,89.9509,0.00033606,3.919e-05,0.0,0 STARLINK-5257,1 55316U 23010AZ  24111.58427959  .00003919  00000-0  33606-3 0  9997,2 55316  69.9975 299.3108 0003270 270.1276  89.9509 14.98333099 71575,6950.183,96.107,574.321,569.776,0.0
55316.0,STARLINK-5257,PAYLOAD,2024-04-20 20:25:53,14.98338236,0.0003072,69.9982,298.6381,265.1593,94.9216,0.00038175,4.466e-05,0.0,0 STARLINK-5257,1 55316U 23010AZ  24111.85131447  .00004466  00000-0  38175-3 0  9995,2 55316  69.9982 298.6381 0003072 265.1593  94.9216 14.98338236 71618,6950.167,96.106,574.168,569.897,0.0
55316.0,STARLINK-5257,PAYLOAD,2024-04-20 22:02:01,14.9833964,0.0003065,69.9982,298.4699,265.3,94.7809,0.00039225,4.591e-05,0.0,0 STARLINK-5257,1 55316U 23010AZ  24111.91807310  .00004591  00000-0  39225-3 0  9997,2 55316  69.9982 298.4699 0003065 265.3000  94.7809 14.98339640 70441,6950.163,96.106,574.158,569.898,0.0
55316.0,STARLINK-5257,PAYLOAD,2024-04-21 14:03:23,14.98337922,0.0003217,69.9977,296.787,266.1587,93.9204,-7.7404e-06,-1.85e-06,0.0,0 STARLINK-5257,1 55316U 23010AZ  24112.58568891 -.00000185  00000-0 -77404-5 0  9999,2 55316  69.9977 296.7870 0003217 266.1587  93.9204 14.98337922 71728,6950.168,96.106,574.269,569.798,0.0
